{
    "type": "Feature",
    "properties": {
        "id": "RIGIS_RI_2021_Summer_Coastal",
        "name": "RIGIS Rhode Island Coastal Aerial Imagery (Jun 2021)",
        "type": "tms",
        "category": "photo",
        "url": "https://maps.edc.uri.edu/rigis/rest/services/IMG/CS_202106_RGBI_1ft_web/ImageServer/tile/{zoom}/{y}/{x}",
        "max_zoom": 21,
        "country_code": "US",
        "attribution": {
            "url": "https://www.rigis.org/",
            "text": "URI Environmental Data Center, RIGIS",
            "required": false
        },
        "start_date": "2021-06-06",
        "end_date": "2021-06-18"
    },
    "geometry": {
        "type": "Polygon",
        "coordinates": [[
            [-71.9, 41.1],
            [-71.1, 41.1],
            [-71.1, 42.05],
            [-71.9, 42.05],
            [-71.9, 41.1]
        ]]
    }
}
