{
    "type": "Feature",
    "properties": {
        "id": "RIGIS_RI_1939",
        "name": "RIGIS Rhode Island Aerial Imagery (May 1939)",
        "type": "tms",
        "category": "photo",
        "url": "https://maps.edc.uri.edu/arcgis/rest/services/Atlas_imageryBaseMapsEarthCover/1939_RISPP/MapServer/tile/{zoom}/{y}/{x}",
        "max_zoom": 21,
        "country_code": "US",
        "attribution": {
            "url": "https://www.rigis.org/",
            "text": "URI Environmental Data Center, RIGIS",
            "required": false
        },
        "start_date": "1939-05",
        "end_date": "1939-05"
    },
    "geometry": {
        "type": "Polygon",
        "coordinates": [[
            [-71.9, 41.1],
            [-71.1, 41.1],
            [-71.1, 42.05],
            [-71.9, 42.05],
            [-71.9, 41.1]
        ]]
    }
}
