{
    "type": "Feature",
    "properties": {
        "id": "RIGIS_RI_2018_Fall",
        "name": "RIGIS Rhode Island Aerial Imagery (Oct-Nov 2018)",
        "type": "tms",
        "category": "photo",
        "url": "https://maps.edc.uri.edu/rigis/rest/services/IMG/RI_201810_RGB_3in_web/ImageServer/tile/{zoom}/{y}/{x}",
        "max_zoom": 21,
        "country_code": "US",
        "attribution": {
            "url": "https://www.rigis.org/",
            "text": "URI Environmental Data Center, RIGIS",
            "required": false
        },
        "start_date": "2018-10-14",
        "end_date": "2018-11-08"
    },
    "geometry": {
        "type": "Polygon",
        "coordinates": [[
            [-71.9, 41.1],
            [-71.1, 41.1],
            [-71.1, 42.05],
            [-71.9, 42.05],
            [-71.9, 41.1]
        ]]
    }
}
