{
    "type": "Feature",
    "properties": {
        "id": "LINZ-NZ-Historical-Aerial-Post1989",
        "name": "LINZ NZ Scanned Aerial Imagery (1990-2007)",
        "type": "tms",
        "category": "photo",
        "url": "https://basemaps.linz.govt.nz/v1/tiles/scanned-aerial-imagery-post-1989-12-31/WebMercatorQuad/{zoom}/{x}/{y}.webp?api=d01egend5f8dv4zcbfj6z2t7rs3",
        "max_zoom": 21,
        "country_code": "NZ",
        "license_url": "https://creativecommons.org/licenses/by/4.0/",
        "attribution": {
            "url": "https://www.linz.govt.nz/data/licensing-and-using-data/attributing-elevation-or-aerial-imagery-data",
            "text": "Sourced from LINZ CC-BY 4.0",
            "required": true
        },
        "start_date": "1990",
        "end_date": "2007"
    },
    "geometry": {
        "type": "Polygon",
        "coordinates": [[
            [166.5, -47.5],
            [178.6, -47.5],
            [178.6, -34.1],
            [166.5, -34.1],
            [166.5, -47.5]
        ]]
    }
}
